OBJECT_NAME,OBJECT_ID,EPOCH,MEAN_MOTION,ECCENTRICITY,INCLINATION,RA_OF_ASC_NODE,ARG_OF_PERICENTER,MEAN_ANOMALY,EPHEMERIS_TYPE,CLASSIFICATION_TYPE,NORAD_CAT_ID,ELEMENT_SET_NO,REV_AT_EPOCH,BSTAR,MEAN_MOTION_DOT,MEAN_MOTION_DDOT
ONEWEB-0473,2022-012AH,2026-06-09T16:39:46.444320,13.10374565,.00018257,87.8841,37.7695,77.1222,283.0109,0,U,51653,999,20832,-.14233937E-2,-.484E-5,0
ONEWEB-0474,2022-012AJ,2026-06-09T16:27:48.810240,13.10372856,.00017169,87.8847,37.7543,71.5610,288.5704,0,U,51654,999,20831,-.20079573E-2,-.688E-5,0
ONEWEB-0475,2022-012AK,2026-06-09T13:16:01.100928,13.17648267,.00017299,87.9138,7.3916,65.8297,294.3016,0,U,51655,999,21268,.18017847E-3,.83E-6,0
ONEWEB-0490,2022-138A,2026-06-09T11:27:00.005760,13.19725170,.00016584,87.9171,306.5027,97.8833,262.2488,0,U,54113,999,17581,.27018754E-3,.121E-5,0
ONEWEB-0492,2022-138B,2026-06-09T15:41:45.736512,13.19725849,.00017297,87.9163,306.4697,104.5020,255.6305,0,U,54114,999,17584,.33445649E-3,.147E-5,0
ONEWEB-0495,2022-138C,2026-06-09T15:09:54.133056,13.19724486,.00011625,87.9164,306.4764,96.6667,263.4599,0,U,54115,999,17582,.69588046E-4,.41E-6,0
ONEWEB-0497,2022-138D,2026-06-09T15:28:05.934432,13.19724502,.00017657,87.9168,306.4655,98.7149,261.4184,0,U,54116,999,17581,.60097967E-4,.37E-6,0
ONEWEB-0499,2022-138E,2026-06-09T16:53:24.368928,13.19726579,.00015999,87.9163,306.4634,92.4612,267.6703,0,U,54117,999,17583,.18927561E-4,.21E-6,0
ONEWEB-0500,2022-138F,2026-06-09T16:56:47.809824,13.19724264,.00018866,87.9172,306.4563,99.6462,260.4884,0,U,54118,999,17584,.10241673E-3,.54E-6,0
ONEWEB-0501,2022-138G,2026-06-09T15:50:49.751520,13.19723176,.00013948,87.9171,306.4653,95.9665,264.1627,0,U,54119,999,17581,.18660157E-3,.88E-6,0
ONEWEB-0502,2022-138H,2026-06-09T15:30:21.445056,13.19724162,.00016351,87.9171,306.4569,91.3841,268.7479,0,U,54120,999,17583,.12555035E-3,.63E-6,0
ONEWEB-0503,2022-138J,2026-06-09T15:14:27.019680,13.19724695,.00019704,87.9174,306.4648,90.2567,269.8792,0,U,54121,999,17582,.14368941E-3,.7E-6,0
ONEWEB-0504,2022-138K,2026-06-09T16:45:26.290080,13.19724790,.00016521,87.9173,306.4573,90.7900,269.3422,0,U,54122,999,17584,-.16584431E-4,.6E-7,0
ONEWEB-0505,2022-138L,2026-06-09T16:40:53.967648,13.19725530,.00014211,87.9173,306.4591,90.5518,269.5778,0,U,54123,999,17582,-.14569623E-4,.7E-7,0
ONEWEB-0506,2022-138M,2026-06-09T16:04:28.299072,13.19723930,.00015368,87.9172,306.4611,94.7882,265.3427,0,U,54124,999,17581,.44390963E-3,.191E-5,0
ONEWEB-0507,2022-138N,2026-06-09T16:34:03.984096,13.19724422,.00016155,87.9163,306.4697,97.7321,262.3995,0,U,54125,999,17586,.12113842E-3,.61E-6,0
ONEWEB-0508,2022-138P,2026-06-09T16:29:29.912928,13.19724373,.00014034,87.9162,306.4697,102.4781,257.6509,0,U,54126,999,17584,.20122661E-3,.94E-6,0
ONEWEB-0509,2022-138Q,2026-06-09T10:25:32.883168,13.19719567,.00016812,87.9173,306.5092,96.8976,263.2348,0,U,54127,999,17578,.36998258E-3,.161E-5,0
ONEWEB-0510,2022-138R,2026-06-09T16:59:19.046976,13.20772067,.00023999,87.9191,275.9264,98.6792,261.4614,0,U,54128,999,17829,-.91739708E-4,-.24E-6,0
ONEWEB-0511,2022-138S,2026-06-09T15:48:34.986528,13.19726214,.00018336,87.9170,306.4675,87.6663,272.4680,0,U,54129,999,17584,.26116694E-3,.118E-5,0
ONEWEB-0512,2022-138T,2026-06-09T15:37:11.545248,13.19725027,.00015645,87.9162,306.4743,90.0243,270.1069,0,U,54130,999,17581,.12042347E-3,.61E-6,0
ONEWEB-0513,2022-138U,2026-06-09T15:49:44.796864,13.20268768,.00014295,87.9169,306.4175,67.3229,292.8055,0,U,54131,999,17572,.14277986E-3,.71E-6,0
ONEWEB-0514,2022-138V,2026-06-09T15:59:56.279040,13.19724859,.00019971,87.9174,306.4644,96.7562,263.3799,0,U,54132,999,17583,.33229144E-3,.146E-5,0
ONEWEB-0515,2022-138W,2026-06-09T14:50:48.527808,13.20770314,.0002544,87.9195,275.9383,116.1971,243.9425,0,U,54133,999,17830,-.3333583E-5,.12E-6,0
ONEWEB-0516,2022-138X,2026-06-09T15:23:32.404128,13.19725381,.00017426,87.9163,306.4764,100.7517,259.3812,0,U,54134,999,17583,.6869817E-4,.4E-6,0
ONEWEB-0517,2022-138Y,2026-06-09T16:43:08.964192,13.19724413,.00020121,87.9168,306.4571,89.4745,270.6618,0,U,54135,999,17584,.10513157E-3,.55E-6,0
ONEWEB-0518,2022-138Z,2026-06-09T15:21:18.745920,13.19727631,.00017469,87.9164,306.4786,103.1281,257.0047,0,U,54136,999,17583,.51795729E-4,.34E-6,0
ONEWEB-0519,2022-138AA,2026-06-09T15:57:41.239296,13.19726447,.00019636,87.9175,306.4641,91.6948,268.4409,0,U,54137,999,17584,.26532624E-3,.119E-5,0
ONEWEB-0520,2022-138AB,2026-06-09T16:47:42.631872,13.19724610,.00015614,87.9172,306.4574,96.7671,263.3640,0,U,54138,999,17583,.79885051E-4,.45E-6,0
ONEWEB-0521,2022-138AC,2026-06-09T15:46:17.647680,13.19724965,.00020182,87.9174,306.4545,92.6027,267.5337,0,U,54139,999,17577,.26602734E-3,.119E-5,0
