ONEWEB-0473             
1 51653U 22012AH  26160.69428755 -.00000484  00000+0 -14234-2 0  9991
2 51653  87.8841  37.7695 0001825  77.1222 283.0109 13.10374565208325
ONEWEB-0474             
1 51654U 22012AJ  26160.68598160 -.00000688  00000+0 -20080-2 0  9991
2 51654  87.8847  37.7543 0001716  71.5610 288.5704 13.10372856208313
ONEWEB-0475             
1 51655U 22012AK  26160.55279052  .00000083  00000+0  18018-3 0  9990
2 51655  87.9138   7.3916 0001729  65.8297 294.3016 13.17648267212681
ONEWEB-0490             
1 54113U 22138A   26160.47708340  .00000121  00000+0  27019-3 0  9993
2 54113  87.9171 306.5027 0001658  97.8833 262.2488 13.19725170175810
ONEWEB-0492             
1 54114U 22138B   26160.65400158  .00000147  00000+0  33446-3 0  9999
2 54114  87.9163 306.4697 0001729 104.5020 255.6305 13.19725849175847
ONEWEB-0495             
1 54115U 22138C   26160.63187654  .00000041  00000+0  69588-4 0  9991
2 54115  87.9164 306.4764 0001162  96.6667 263.4599 13.19724486175829
ONEWEB-0497             
1 54116U 22138D   26160.64451313  .00000037  00000+0  60098-4 0  9991
2 54116  87.9168 306.4655 0001765  98.7149 261.4184 13.19724502175816
ONEWEB-0499             
1 54117U 22138E   26160.70375427  .00000021  00000+0  18928-4 0  9998
2 54117  87.9163 306.4634 0001599  92.4612 267.6703 13.19726579175833
ONEWEB-0500             
1 54118U 22138F   26160.70610891  .00000054  00000+0  10242-3 0  9992
2 54118  87.9172 306.4563 0001886  99.6462 260.4884 13.19724264175847
ONEWEB-0501             
1 54119U 22138G   26160.66029805  .00000088  00000+0  18660-3 0  9996
2 54119  87.9171 306.4653 0001394  95.9665 264.1627 13.19723176175819
ONEWEB-0502             
1 54120U 22138H   26160.64608154  .00000063  00000+0  12555-3 0  9996
2 54120  87.9171 306.4569 0001635  91.3841 268.7479 13.19724162175834
ONEWEB-0503             
1 54121U 22138J   26160.63503495  .00000070  00000+0  14369-3 0  9991
2 54121  87.9174 306.4648 0001970  90.2567 269.8792 13.19724695175821
ONEWEB-0504             
1 54122U 22138K   26160.69822095  .00000006  00000+0 -16584-4 0  9990
2 54122  87.9173 306.4573 0001652  90.7900 269.3422 13.19724790175844
ONEWEB-0505             
1 54123U 22138L   26160.69506907  .00000007  00000+0 -14570-4 0  9996
2 54123  87.9173 306.4591 0001421  90.5518 269.5778 13.19725530175829
ONEWEB-0506             
1 54124U 22138M   26160.66977198  .00000191  00000+0  44391-3 0  9994
2 54124  87.9172 306.4611 0001536  94.7882 265.3427 13.19723930175815
ONEWEB-0507             
1 54125U 22138N   26160.69032389  .00000061  00000+0  12114-3 0  9996
2 54125  87.9163 306.4697 0001615  97.7321 262.3995 13.19724422175868
ONEWEB-0508             
1 54126U 22138P   26160.68715177  .00000094  00000+0  20123-3 0  9994
2 54126  87.9162 306.4697 0001403 102.4781 257.6509 13.19724373175848
ONEWEB-0509             
1 54127U 22138Q   26160.43440837  .00000161  00000+0  36998-3 0  9998
2 54127  87.9173 306.5092 0001681  96.8976 263.2348 13.19719567175787
ONEWEB-0510             
1 54128U 22138R   26160.70785934 -.00000024  00000+0 -91740-4 0  9996
2 54128  87.9191 275.9264 0002399  98.6792 261.4614 13.20772067178292
ONEWEB-0511             
1 54129U 22138S   26160.65873827  .00000118  00000+0  26117-3 0  9997
2 54129  87.9170 306.4675 0001833  87.6663 272.4680 13.19726214175847
ONEWEB-0512             
1 54130U 22138T   26160.65082807  .00000061  00000+0  12042-3 0  9998
2 54130  87.9162 306.4743 0001564  90.0243 270.1069 13.19725027175813
ONEWEB-0513             
1 54131U 22138U   26160.65954626  .00000071  00000+0  14278-3 0  9990
2 54131  87.9169 306.4175 0001429  67.3229 292.8055 13.20268768175723
ONEWEB-0514             
1 54132U 22138V   26160.66662360  .00000146  00000+0  33229-3 0  9993
2 54132  87.9174 306.4644 0001997  96.7562 263.3799 13.19724859175833
ONEWEB-0515             
1 54133U 22138W   26160.61861722  .00000012  00000+0 -33336-5 0  9996
2 54133  87.9195 275.9383 0002544 116.1971 243.9425 13.20770314178301
ONEWEB-0516             
1 54134U 22138X   26160.64134727  .00000040  00000+0  68698-4 0  9996
2 54134  87.9163 306.4764 0001742 100.7517 259.3812 13.19725381175832
ONEWEB-0517             
1 54135U 22138Y   26160.69663153  .00000055  00000+0  10513-3 0  9990
2 54135  87.9168 306.4571 0002012  89.4745 270.6618 13.19724413175847
ONEWEB-0518             
1 54136U 22138Z   26160.63980030  .00000034  00000+0  51796-4 0  9997
2 54136  87.9164 306.4786 0001746 103.1281 257.0047 13.19727631175833
ONEWEB-0519             
1 54137U 22138AA  26160.66506064  .00000119  00000+0  26533-3 0  9996
2 54137  87.9175 306.4641 0001963  91.6948 268.4409 13.19726447175841
ONEWEB-0520             
1 54138U 22138AB  26160.69979898  .00000045  00000+0  79885-4 0  9996
2 54138  87.9172 306.4574 0001561  96.7671 263.3640 13.19724610175837
ONEWEB-0521             
1 54139U 22138AC  26160.65714870  .00000119  00000+0  26603-3 0  9991
2 54139  87.9174 306.4545 0002018  92.6027 267.5337 13.19724965175771
